[{"OBJECT_NAME":"STARLINK-5188","OBJECT_ID":"2022-136AX","EPOCH":"2026-03-09T22:22:25.743360","MEAN_MOTION":15.08841111,"ECCENTRICITY":0.00012242,"INCLINATION":53.2198,"RA_OF_ASC_NODE":332.8206,"ARG_OF_PERICENTER":79.069,"MEAN_ANOMALY":281.044,"EPHEMERIS_TYPE":0,"CLASSIFICATION_TYPE":"U","NORAD_CAT_ID":54096,"ELEMENT_SET_NO":999,"REV_AT_EPOCH":18702,"BSTAR":-0.00011529508,"MEAN_MOTION_DOT":-2.122e-5,"MEAN_MOTION_DDOT":0},{"OBJECT_NAME":"CZ-4B DEB","OBJECT_ID":"2004-035K","EPOCH":"2026-03-08T06:51:30.377664","MEAN_MOTION":15.09293825,"ECCENTRICITY":0.00031468,"INCLINATION":97.5843,"RA_OF_ASC_NODE":91.2716,"ARG_OF_PERICENTER":107.6302,"MEAN_ANOMALY":252.527,"EPHEMERIS_TYPE":0,"CLASSIFICATION_TYPE":"U","NORAD_CAT_ID":29043,"ELEMENT_SET_NO":999,"REV_AT_EPOCH":10418,"BSTAR":0.00031897975,"MEAN_MOTION_DOT":5.021e-5,"MEAN_MOTION_DDOT":0}]
